[{"OBJECT_NAME":"STARLINK-37251","OBJECT_ID":"2026-068G","EPOCH":"2026-04-12T06:00:02.000160","MEAN_MOTION":15.80907087,"ECCENTRICITY":0.00011741,"INCLINATION":53.1586,"RA_OF_ASC_NODE":341.0873,"ARG_OF_PERICENTER":87.5688,"MEAN_ANOMALY":10.3089,"EPHEMERIS_TYPE":0,"CLASSIFICATION_TYPE":"U","NORAD_CAT_ID":68514,"ELEMENT_SET_NO":999,"REV_AT_EPOCH":320,"BSTAR":-0.00032883141,"MEAN_MOTION_DOT":-0.00065214,"MEAN_MOTION_DDOT":0},{"OBJECT_NAME":"STARLINK-36293","OBJECT_ID":"2026-068H","EPOCH":"2026-04-12T06:00:02.000160","MEAN_MOTION":15.80904978,"ECCENTRICITY":0.00011571,"INCLINATION":53.1587,"RA_OF_ASC_NODE":341.0788,"ARG_OF_PERICENTER":91.0592,"MEAN_ANOMALY":11.0917,"EPHEMERIS_TYPE":0,"CLASSIFICATION_TYPE":"U","NORAD_CAT_ID":68515,"ELEMENT_SET_NO":999,"REV_AT_EPOCH":315,"BSTAR":-0.0003264525,"MEAN_MOTION_DOT":-0.00064744,"MEAN_MOTION_DDOT":0},{"OBJECT_NAME":"STARLINK-36290","OBJECT_ID":"2026-068J","EPOCH":"2026-04-12T06:00:02.000160","MEAN_MOTION":15.80903793,"ECCENTRICITY":0.00011216,"INCLINATION":53.1589,"RA_OF_ASC_NODE":341.07,"ARG_OF_PERICENTER":89.627,"MEAN_ANOMALY":16.7961,"EPHEMERIS_TYPE":0,"CLASSIFICATION_TYPE":"U","NORAD_CAT_ID":68516,"ELEMENT_SET_NO":999,"REV_AT_EPOCH":315,"BSTAR":-0.00031889686,"MEAN_MOTION_DOT":-0.00063269,"MEAN_MOTION_DDOT":0},{"OBJECT_NAME":"STARLINK-36298","OBJECT_ID":"2026-068K","EPOCH":"2026-04-12T06:00:02.000160","MEAN_MOTION":15.80892508,"ECCENTRICITY":0.00012018,"INCLINATION":53.1589,"RA_OF_ASC_NODE":341.0611,"ARG_OF_PERICENTER":79.2559,"MEAN_ANOMALY":31.4434,"EPHEMERIS_TYPE":0,"CLASSIFICATION_TYPE":"U","NORAD_CAT_ID":68517,"ELEMENT_SET_NO":999,"REV_AT_EPOCH":315,"BSTAR":-0.00022843237,"MEAN_MOTION_DOT":-0.00045588,"MEAN_MOTION_DDOT":0},{"OBJECT_NAME":"STARLINK-36857","OBJECT_ID":"2026-068L","EPOCH":"2026-04-12T06:00:02.000160","MEAN_MOTION":15.80902145,"ECCENTRICITY":0.00012067,"INCLINATION":53.1586,"RA_OF_ASC_NODE":341.0434,"ARG_OF_PERICENTER":80.3424,"MEAN_ANOMALY":38.8979,"EPHEMERIS_TYPE":0,"CLASSIFICATION_TYPE":"U","NORAD_CAT_ID":68518,"ELEMENT_SET_NO":999,"REV_AT_EPOCH":320,"BSTAR":-0.00031953464,"MEAN_MOTION_DOT":-0.00063389,"MEAN_MOTION_DDOT":0},{"OBJECT_NAME":"STARLINK-36326","OBJECT_ID":"2026-068M","EPOCH":"2026-04-12T06:00:02.000160","MEAN_MOTION":15.80902918,"ECCENTRICITY":0.00011185,"INCLINATION":53.1585,"RA_OF_ASC_NODE":341.0524,"ARG_OF_PERICENTER":82.8663,"MEAN_ANOMALY":32.1016,"EPHEMERIS_TYPE":0,"CLASSIFICATION_TYPE":"U","NORAD_CAT_ID":68519,"ELEMENT_SET_NO":999,"REV_AT_EPOCH":320,"BSTAR":-0.00032468817,"MEAN_MOTION_DOT":-0.00064394,"MEAN_MOTION_DDOT":0},{"OBJECT_NAME":"STARLINK-37126","OBJECT_ID":"2026-068N","EPOCH":"2026-04-12T06:00:02.000160","MEAN_MOTION":15.80871298,"ECCENTRICITY":9.537e-5,"INCLINATION":53.1616,"RA_OF_ASC_NODE":341.0324,"ARG_OF_PERICENTER":86.7467,"MEAN_ANOMALY":36.7707,"EPHEMERIS_TYPE":0,"CLASSIFICATION_TYPE":"U","NORAD_CAT_ID":68520,"ELEMENT_SET_NO":999,"REV_AT_EPOCH":320,"BSTAR":-2.651494e-5,"MEAN_MOTION_DOT":-5.927e-5,"MEAN_MOTION_DDOT":0},{"OBJECT_NAME":"STARLINK-36347","OBJECT_ID":"2026-068P","EPOCH":"2026-04-12T06:00:02.000160","MEAN_MOTION":15.80910787,"ECCENTRICITY":0.0001124,"INCLINATION":53.1588,"RA_OF_ASC_NODE":341.0259,"ARG_OF_PERICENTER":92.7658,"MEAN_ANOMALY":35.0129,"EPHEMERIS_TYPE":0,"CLASSIFICATION_TYPE":"U","NORAD_CAT_ID":68521,"ELEMENT_SET_NO":999,"REV_AT_EPOCH":320,"BSTAR":-0.00037548876,"MEAN_MOTION_DOT":-0.00074303,"MEAN_MOTION_DDOT":0},{"OBJECT_NAME":"STARLINK-36322","OBJECT_ID":"2026-068Q","EPOCH":"2026-04-12T06:00:02.000160","MEAN_MOTION":15.80862898,"ECCENTRICITY":9.87e-5,"INCLINATION":53.1588,"RA_OF_ASC_NODE":341.015,"ARG_OF_PERICENTER":81.4948,"MEAN_ANOMALY":50.5678,"EPHEMERIS_TYPE":0,"CLASSIFICATION_TYPE":"U","NORAD_CAT_ID":68522,"ELEMENT_SET_NO":999,"REV_AT_EPOCH":315,"BSTAR":0.00012737838,"MEAN_MOTION_DOT":0.00024501,"MEAN_MOTION_DDOT":0},{"OBJECT_NAME":"STARLINK-37208","OBJECT_ID":"2026-068R","EPOCH":"2026-04-12T06:00:02.000160","MEAN_MOTION":15.80893875,"ECCENTRICITY":9.985e-5,"INCLINATION":53.1588,"RA_OF_ASC_NODE":341.0082,"ARG_OF_PERICENTER":90.1112,"MEAN_ANOMALY":46.2175,"EPHEMERIS_TYPE":0,"CLASSIFICATION_TYPE":"U","NORAD_CAT_ID":68523,"ELEMENT_SET_NO":999,"REV_AT_EPOCH":320,"BSTAR":-0.00025968024,"MEAN_MOTION_DOT":-0.00051694,"MEAN_MOTION_DDOT":0},{"OBJECT_NAME":"STARLINK-36302","OBJECT_ID":"2026-068S","EPOCH":"2026-04-12T06:00:02.000160","MEAN_MOTION":15.80908713,"ECCENTRICITY":9.803e-5,"INCLINATION":53.1588,"RA_OF_ASC_NODE":340.9995,"ARG_OF_PERICENTER":90.5299,"MEAN_ANOMALY":50.062,"EPHEMERIS_TYPE":0,"CLASSIFICATION_TYPE":"U","NORAD_CAT_ID":68524,"ELEMENT_SET_NO":999,"REV_AT_EPOCH":320,"BSTAR":-0.0003684203,"MEAN_MOTION_DOT":-0.00072921,"MEAN_MOTION_DDOT":0},{"OBJECT_NAME":"STARLINK-36311","OBJECT_ID":"2026-068T","EPOCH":"2026-04-12T06:00:02.000160","MEAN_MOTION":15.80861234,"ECCENTRICITY":0.00010824,"INCLINATION":53.1588,"RA_OF_ASC_NODE":340.9796,"ARG_OF_PERICENTER":84.0935,"MEAN_ANOMALY":65.0565,"EPHEMERIS_TYPE":0,"CLASSIFICATION_TYPE":"U","NORAD_CAT_ID":68525,"ELEMENT_SET_NO":999,"REV_AT_EPOCH":315,"BSTAR":0.00015202518,"MEAN_MOTION_DOT":0.00029392,"MEAN_MOTION_DDOT":0},{"OBJECT_NAME":"STARLINK-37178","OBJECT_ID":"2026-068U","EPOCH":"2026-04-12T06:00:02.000160","MEAN_MOTION":15.80858485,"ECCENTRICITY":9.552e-5,"INCLINATION":53.1615,"RA_OF_ASC_NODE":340.9882,"ARG_OF_PERICENTER":77.8619,"MEAN_ANOMALY":67.0214,"EPHEMERIS_TYPE":0,"CLASSIFICATION_TYPE":"U","NORAD_CAT_ID":68526,"ELEMENT_SET_NO":999,"REV_AT_EPOCH":320,"BSTAR":7.0860937e-5,"MEAN_MOTION_DOT":0.00013299,"MEAN_MOTION_DDOT":0},{"OBJECT_NAME":"STARLINK-37248","OBJECT_ID":"2026-068V","EPOCH":"2026-04-12T06:00:02.000160","MEAN_MOTION":15.80863475,"ECCENTRICITY":0.00010933,"INCLINATION":53.1588,"RA_OF_ASC_NODE":340.9709,"ARG_OF_PERICENTER":83.3664,"MEAN_ANOMALY":70.0544,"EPHEMERIS_TYPE":0,"CLASSIFICATION_TYPE":"U","NORAD_CAT_ID":68527,"ELEMENT_SET_NO":999,"REV_AT_EPOCH":320,"BSTAR":0.00012348317,"MEAN_MOTION_DOT":0.00023729,"MEAN_MOTION_DDOT":0},{"OBJECT_NAME":"STARLINK-37241","OBJECT_ID":"2026-068W","EPOCH":"2026-04-12T06:00:02.000160","MEAN_MOTION":15.80854893,"ECCENTRICITY":0.00010937,"INCLINATION":53.1588,"RA_OF_ASC_NODE":340.9533,"ARG_OF_PERICENTER":80.3673,"MEAN_ANOMALY":81.6017,"EPHEMERIS_TYPE":0,"CLASSIFICATION_TYPE":"U","NORAD_CAT_ID":68528,"ELEMENT_SET_NO":999,"REV_AT_EPOCH":320,"BSTAR":0.00018851507,"MEAN_MOTION_DOT":0.00036635,"MEAN_MOTION_DDOT":0},{"OBJECT_NAME":"STARLINK-37244","OBJECT_ID":"2026-068X","EPOCH":"2026-04-12T06:00:02.000160","MEAN_MOTION":15.80862882,"ECCENTRICITY":0.00011266,"INCLINATION":53.1591,"RA_OF_ASC_NODE":340.962,"ARG_OF_PERICENTER":85.2062,"MEAN_ANOMALY":72.4868,"EPHEMERIS_TYPE":0,"CLASSIFICATION_TYPE":"U","NORAD_CAT_ID":68529,"ELEMENT_SET_NO":999,"REV_AT_EPOCH":320,"BSTAR":0.00012796321,"MEAN_MOTION_DOT":0.00024617,"MEAN_MOTION_DDOT":0}]
