STARLINK-37251          
1 68514U 26068G   26102.25002315 -.00065214  00000+0 -32883-3 0  9991
2 68514  53.1586 341.0873 0001174  87.5688  10.3089 15.80907087  3206
STARLINK-36293          
1 68515U 26068H   26102.25002315 -.00064744  00000+0 -32645-3 0  9995
2 68515  53.1587 341.0788 0001157  91.0592  11.0917 15.80904978  3156
STARLINK-36290          
1 68516U 26068J   26102.25002315 -.00063269  00000+0 -31890-3 0  9998
2 68516  53.1589 341.0700 0001121  89.6270  16.7961 15.80903793  3155
STARLINK-36298          
1 68517U 26068K   26102.25002315 -.00045588  00000+0 -22843-3 0  9991
2 68517  53.1589 341.0611 0001201  79.2559  31.4434 15.80892508  3151
STARLINK-36857          
1 68518U 26068L   26102.25002315 -.00063389  00000+0 -31953-3 0  9993
2 68518  53.1586 341.0434 0001206  80.3424  38.8979 15.80902145  3201
STARLINK-36326          
1 68519U 26068M   26102.25002315 -.00064394  00000+0 -32469-3 0  9994
2 68519  53.1585 341.0524 0001118  82.8663  32.1016 15.80902918  3202
STARLINK-37126          
1 68520U 26068N   26102.25002315 -.00005927  00000+0 -26515-4 0  9999
2 68520  53.1616 341.0324 0000953  86.7467  36.7707 15.80871298  3201
STARLINK-36347          
1 68521U 26068P   26102.25002315 -.00074303  00000+0 -37549-3 0  9992
2 68521  53.1588 341.0259 0001124  92.7658  35.0129 15.80910787  3204
STARLINK-36322          
1 68522U 26068Q   26102.25002315  .00024501  00000+0  12738-3 0  9999
2 68522  53.1588 341.0150 0000987  81.4948  50.5678 15.80862898  3152
STARLINK-37208          
1 68523U 26068R   26102.25002315 -.00051694  00000+0 -25968-3 0  9994
2 68523  53.1588 341.0082 0000998  90.1112  46.2175 15.80893875  3208
STARLINK-36302          
1 68524U 26068S   26102.25002315 -.00072921  00000+0 -36842-3 0  9994
2 68524  53.1588 340.9995 0000980  90.5299  50.0620 15.80908713  3207
STARLINK-36311          
1 68525U 26068T   26102.25002315  .00029392  00000+0  15203-3 0  9995
2 68525  53.1588 340.9796 0001082  84.0935  65.0565 15.80861234  3150
STARLINK-37178          
1 68526U 26068U   26102.25002315  .00013299  00000+0  70861-4 0  9997
2 68526  53.1615 340.9882 0000955  77.8619  67.0214 15.80858485  3208
STARLINK-37248          
1 68527U 26068V   26102.25002315  .00023729  00000+0  12348-3 0  9992
2 68527  53.1588 340.9709 0001093  83.3664  70.0544 15.80863475  3207
STARLINK-37241          
1 68528U 26068W   26102.25002315  .00036635  00000+0  18852-3 0  9999
2 68528  53.1588 340.9533 0001093  80.3673  81.6017 15.80854893  3207
STARLINK-37244          
1 68529U 26068X   26102.25002315  .00024617  00000+0  12796-3 0  9998
2 68529  53.1591 340.9620 0001126  85.2062  72.4868 15.80862882  3201
